stk.v.4.3 

BEGIN Ephemeris 

NumberOfEpemerisPoints 7200
ScenarioEpoch 	2020-10-09 16:00:00
Central Body Earth
CoordinateSystem Inertial
EphemerisTimePosVel
15 2.14780181579171e+04 1.23152612775258e+04 9.78028436149211e+03 -2.21916821249116e+00 2.73206488068297e+00 
15 2.63171657073929e+04 -1.14376570224642e+03 3.56503784130047e+03 5.28728177212951e-01 -3.18352681840506e+00 
15 -1.99882268942040e+04 1.04764973265966e+04 -1.40518143460479e+04 1.39471118114706e-01 -2.37141986055202e+00 
15 -7.00771827781647e+02 2.32325349308842e+04 1.28828932650164e+04 -2.51772694675339e+00 2.52799969857327e+00 
15 -1.58056688235109e+03 -2.38885796727561e+04 1.15501914119238e+04 2.53253054664704e+00 2.68418065271519e+00 
15 1.58150312766348e+04 -2.11105708577575e+04 -4.49695630941571e+02 1.71880429134070e+00 -3.24210871406591e+00 
15 1.74271553057262e+04 2.03486877945758e+03 1.98385825008906e+04 -1.71652160474095e+00 1.12002016250529e+00 
15 -2.79542003509605e+02 -1.48793576065958e+04 2.18759593495654e+04 3.87084855351207e+00 2.20642263690338e-01 
15 -5.62398547701208e+03 -1.69654970916786e+04 -1.95201635089568e+04 2.79869087178711e+00 1.27724341384356e+00 
15 -1.91292765613561e+04 1.66075559818924e+04 8.10163485839505e+03 -7.62394179743513e-01 2.99311541779039e+00 
15 -1.39239630333000e+04 -1.43941813744639e+04 -1.75028778660435e+04 3.26868094374483e+00 -1.86212627367166e+00 
15 -1.18644519718622e+03 2.22970505260018e+04 1.43905199964282e+04 -2.53111852613788e+00 2.39351369880784e+00 
15 1.48908046484786e+04 1.97550298220890e+04 9.31987531351105e+03 -1.30353965323947e+00 -2.84316360894515e+00 
15 2.41889693155230e+04 8.03405657493990e+03 -6.94927928993081e+03 -1.50338016174979e+00 -3.04425025815138e+00 
15 1.39104420738617e+04 -5.72921089443648e+03 -2.17917260435121e+04 1.50451995835712e+00 4.29955807494449e-02 
15 -1.44285334691260e+04 -1.40590431419528e+04 -1.72952729352398e+04 3.23891745147505e+00 -1.90310233135394e+00 
15 -2.00590357192418e+04 8.86583866532640e+03 1.50236657916504e+04 -2.52656288457972e+00 -2.29526938923453e+00 
15 -1.96148972284300e+04 1.30433675769852e+04 1.22221790054678e+04 -2.37170043481546e-01 2.64118217610014e+00 
15 2.64880074270647e+04 1.21746093191795e+03 2.23281644485903e+03 -3.82496488147974e-01 3.16724013209955e+00 
15 2.47603187014070e+04 -9.88384824644099e+03 -2.66454098353796e+03 6.40556333208667e-01 -3.02077174127958e+00 
15 -1.39179585483234e+04 7.98317735253288e+03 2.10693878523142e+04 -1.36854718574408e+00 4.84341589159821e-01 
15 -1.78294957980558e+03 -2.29490028413393e+04 1.39759060316884e+04 2.60907243683708e+00 2.49113496382154e+00 
15 -1.50615952235355e+04 3.22168103716136e+03 -2.18942289604383e+04 -1.51808867788661e+00 4.91230507388996e-01 
15 -1.88285296374364e+04 6.15185888508087e+02 1.96160852137513e+04 1.38625346990562e+00 1.45795494833283e+00 
15 5.95346928007123e+03 2.57930279321628e+04 3.22422200504706e+03 -2.33751102626296e+00 3.06460587669942e+00 
15 1.81622323572539e+04 1.10720853200627e+04 -1.62329711455751e+04 -2.80996129097014e+00 -2.19899347020927e+00 
15 -1.10986275118267e+04 -1.08929484797906e+04 2.21865697484150e+04 2.53706404158678e+00 -1.16828694643939e-01 
15 1.98777173017187e+04 1.03709089377369e+04 -1.38392403640938e+04 -2.58879092857941e+00 -2.49949837373094e+00 
15 -7.54035625765194e+03 2.30915641335245e+04 1.01318597547517e+04 -2.67992219725750e+00 -2.82445143458251e+00 
15 -1.55007898275118e+04 -2.08215976808299e+04 -6.20934799444308e+03 1.35431502811107e+00 3.07169081152864e+00 
15 2.14780181579171e+04 1.23152612775258e+04 9.78028436149211e+03 -2.21916821249116e+00 2.73206488068297e+00 
15 2.63171657073929e+04 -1.14376570224642e+03 3.56503784130047e+03 5.28728177212951e-01 -3.18352681840506e+00 
15 -1.99882268942040e+04 1.04764973265966e+04 -1.40518143460479e+04 1.39471118114706e-01 -2.37141986055202e+00 
15 -7.00771827781647e+02 2.32325349308842e+04 1.28828932650164e+04 -2.51772694675339e+00 2.52799969857327e+00 
15 -1.58056688235109e+03 -2.38885796727561e+04 1.15501914119238e+04 2.53253054664704e+00 2.68418065271519e+00 
15 1.58150312766348e+04 -2.11105708577575e+04 -4.49695630941571e+02 1.71880429134070e+00 -3.24210871406591e+00 
15 1.74271553057262e+04 2.03486877945758e+03 1.98385825008906e+04 -1.71652160474095e+00 1.12002016250529e+00 
15 -2.79542003509605e+02 -1.48793576065958e+04 2.18759593495654e+04 3.87084855351207e+00 2.20642263690338e-01 
15 -5.62398547701208e+03 -1.69654970916786e+04 -1.95201635089568e+04 2.79869087178711e+00 1.27724341384356e+00 
15 -1.91292765613561e+04 1.66075559818924e+04 8.10163485839505e+03 -7.62394179743513e-01 2.99311541779039e+00 
15 -1.39239630333000e+04 -1.43941813744639e+04 -1.75028778660435e+04 3.26868094374483e+00 -1.86212627367166e+00 
15 -1.18644519718622e+03 2.22970505260018e+04 1.43905199964282e+04 -2.53111852613788e+00 2.39351369880784e+00 
15 1.48908046484786e+04 1.97550298220890e+04 9.31987531351105e+03 -1.30353965323947e+00 -2.84316360894515e+00 
15 2.41889693155230e+04 8.03405657493990e+03 -6.94927928993081e+03 -1.50338016174979e+00 -3.04425025815138e+00 
15 1.39104420738617e+04 -5.72921089443648e+03 -2.17917260435121e+04 1.50451995835712e+00 4.29955807494449e-02 
15 -1.44285334691260e+04 -1.40590431419528e+04 -1.72952729352398e+04 3.23891745147505e+00 -1.90310233135394e+00 
15 -2.00590357192418e+04 8.86583866532640e+03 1.50236657916504e+04 -2.52656288457972e+00 -2.29526938923453e+00 
15 -1.96148972284300e+04 1.30433675769852e+04 1.22221790054678e+04 -2.37170043481546e-01 2.64118217610014e+00 
15 2.64880074270647e+04 1.21746093191795e+03 2.23281644485903e+03 -3.82496488147974e-01 3.16724013209955e+00 
15 2.47603187014070e+04 -9.88384824644099e+03 -2.66454098353796e+03 6.40556333208667e-01 -3.02077174127958e+00 
15 -1.39179585483234e+04 7.98317735253288e+03 2.10693878523142e+04 -1.36854718574408e+00 4.84341589159821e-01 
15 -1.78294957980558e+03 -2.29490028413393e+04 1.39759060316884e+04 2.60907243683708e+00 2.49113496382154e+00 
15 -1.50615952235355e+04 3.22168103716136e+03 -2.18942289604383e+04 -1.51808867788661e+00 4.91230507388996e-01 
15 -1.88285296374364e+04 6.15185888508087e+02 1.96160852137513e+04 1.38625346990562e+00 1.45795494833283e+00 
15 5.95346928007123e+03 2.57930279321628e+04 3.22422200504706e+03 -2.33751102626296e+00 3.06460587669942e+00 
15 1.81622323572539e+04 1.10720853200627e+04 -1.62329711455751e+04 -2.80996129097014e+00 -2.19899347020927e+00 
15 -1.10986275118267e+04 -1.08929484797906e+04 2.21865697484150e+04 2.53706404158678e+00 -1.16828694643939e-01 
15 1.98777173017187e+04 1.03709089377369e+04 -1.38392403640938e+04 -2.58879092857941e+00 -2.49949837373094e+00 
15 -7.54035625765194e+03 2.30915641335245e+04 1.01318597547517e+04 -2.67992219725750e+00 -2.82445143458251e+00 
15 -1.55007898275118e+04 -2.08215976808299e+04 -6.20934799444308e+03 1.35431502811107e+00 3.07169081152864e+00 
15 2.14780181579171e+04 1.23152612775258e+04 9.78028436149211e+03 -2.21916821249116e+00 2.73206488068297e+00 
15 2.63171657073929e+04 -1.14376570224642e+03 3.56503784130047e+03 5.28728177212951e-01 -3.18352681840506e+00 
15 -1.99882268942040e+04 1.04764973265966e+04 -1.40518143460479e+04 1.39471118114706e-01 -2.37141986055202e+00 
15 -7.00771827781647e+02 2.32325349308842e+04 1.28828932650164e+04 -2.51772694675339e+00 2.52799969857327e+00 
15 -1.58056688235109e+03 -2.38885796727561e+04 1.15501914119238e+04 2.53253054664704e+00 2.68418065271519e+00 
15 1.58150312766348e+04 -2.11105708577575e+04 -4.49695630941571e+02 1.71880429134070e+00 -3.24210871406591e+00 
15 1.74271553057262e+04 2.03486877945758e+03 1.98385825008906e+04 -1.71652160474095e+00 1.12002016250529e+00 
15 -2.79542003509605e+02 -1.48793576065958e+04 2.18759593495654e+04 3.87084855351207e+00 2.20642263690338e-01 
15 -5.62398547701208e+03 -1.69654970916786e+04 -1.95201635089568e+04 2.79869087178711e+00 1.27724341384356e+00 
15 -1.91292765613561e+04 1.66075559818924e+04 8.10163485839505e+03 -7.62394179743513e-01 2.99311541779039e+00 
15 -1.39239630333000e+04 -1.43941813744639e+04 -1.75028778660435e+04 3.26868094374483e+00 -1.86212627367166e+00 
15 -1.18644519718622e+03 2.22970505260018e+04 1.43905199964282e+04 -2.53111852613788e+00 2.39351369880784e+00 
15 1.48908046484786e+04 1.97550298220890e+04 9.31987531351105e+03 -1.30353965323947e+00 -2.84316360894515e+00 
15 2.41889693155230e+04 8.03405657493990e+03 -6.94927928993081e+03 -1.50338016174979e+00 -3.04425025815138e+00 
15 1.39104420738617e+04 -5.72921089443648e+03 -2.17917260435121e+04 1.50451995835712e+00 4.29955807494449e-02 
15 -1.44285334691260e+04 -1.40590431419528e+04 -1.72952729352398e+04 3.23891745147505e+00 -1.90310233135394e+00 
15 -2.00590357192418e+04 8.86583866532640e+03 1.50236657916504e+04 -2.52656288457972e+00 -2.29526938923453e+00 
15 -1.96148972284300e+04 1.30433675769852e+04 1.22221790054678e+04 -2.37170043481546e-01 2.64118217610014e+00 
15 2.64880074270647e+04 1.21746093191795e+03 2.23281644485903e+03 -3.82496488147974e-01 3.16724013209955e+00 
15 2.47603187014070e+04 -9.88384824644099e+03 -2.66454098353796e+03 6.40556333208667e-01 -3.02077174127958e+00 
15 -1.39179585483234e+04 7.98317735253288e+03 2.10693878523142e+04 -1.36854718574408e+00 4.84341589159821e-01 
15 -1.78294957980558e+03 -2.29490028413393e+04 1.39759060316884e+04 2.60907243683708e+00 2.49113496382154e+00 
15 -1.50615952235355e+04 3.22168103716136e+03 -2.18942289604383e+04 -1.51808867788661e+00 4.91230507388996e-01 
15 -1.88285296374364e+04 6.15185888508087e+02 1.96160852137513e+04 1.38625346990562e+00 1.45795494833283e+00 
15 5.95346928007123e+03 2.57930279321628e+04 3.22422200504706e+03 -2.33751102626296e+00 3.06460587669942e+00 
15 1.81622323572539e+04 1.10720853200627e+04 -1.62329711455751e+04 -2.80996129097014e+00 -2.19899347020927e+00 
15 -1.10986275118267e+04 -1.08929484797906e+04 2.21865697484150e+04 2.53706404158678e+00 -1.16828694643939e-01 
15 1.98777173017187e+04 1.03709089377369e+04 -1.38392403640938e+04 -2.58879092857941e+00 -2.49949837373094e+00 
END Ephemeris